{
  "type": "FeatureCollection",
  "features": [
    {
      "type": "Feature",
      "properties": {
        "norad_id": 43207,
        "name": "BEIDOU-3 M4 (C22)",
        "group": "beidou",
        "lat": -42.23003469865714,
        "lon": 32.170029922543,
        "alt_km": 21527.168705826738,
        "timestamp": "2025-12-20T07:33:51.078221+00:00",
        "meta_object_name": "BEIDOU-3 M4 (C22)",
        "meta_object_id": "2018-018A",
        "meta_epoch": "2025-12-18T05:56:14.155584",
        "meta_mean_motion": 1.86231297,
        "meta_eccentricity": 0.0004163,
        "meta_inclination": 56.4903,
        "meta_ra_of_asc_node": 69.1221,
        "meta_arg_of_pericenter": 6.0826,
        "meta_mean_anomaly": 353.9513,
        "meta_ephemeris_type": 0,
        "meta_classification_type": "U",
        "meta_norad_cat_id": 43207,
        "meta_element_set_no": 999,
        "meta_rev_at_epoch": 5337,
        "meta_bstar": 0,
        "meta_mean_motion_dot": -6.5e-07,
        "meta_mean_motion_ddot": 0,
        "tle_line1": "1 43207U 18018A   25352.24738606 -.00000065  00000+0  00000+0 0  9997",
        "tle_line2": "2 43207  56.4903  69.1221 0004163   6.0826 353.9513  1.86231297 53378"
      },
      "geometry": {
        "type": "Point",
        "coordinates": [
          32.170029922543,
          -42.23003469865714
        ]
      }
    },
    {
      "type": "Feature",
      "properties": {
        "norad_id": 43208,
        "name": "BEIDOU-3 M3 (C21)",
        "group": "beidou",
        "lat": -55.60801445792618,
        "lon": -35.81951668123162,
        "alt_km": 21521.959348153276,
        "timestamp": "2025-12-20T07:33:51.078232+00:00",
        "meta_object_name": "BEIDOU-3 M3 (C21)",
        "meta_object_id": "2018-018B",
        "meta_epoch": "2025-12-19T09:18:26.987040",
        "meta_mean_motion": 1.8623146,
        "meta_eccentricity": 0.0007021,
        "meta_inclination": 56.4904,
        "meta_ra_of_asc_node": 69.0885,
        "meta_arg_of_pericenter": 313.7803,
        "meta_mean_anomaly": 46.1968,
        "meta_ephemeris_type": 0,
        "meta_classification_type": "U",
        "meta_norad_cat_id": 43208,
        "meta_element_set_no": 999,
        "meta_rev_at_epoch": 5339,
        "meta_bstar": 0,
        "meta_mean_motion_dot": -5.3e-07,
        "meta_mean_motion_ddot": 0,
        "tle_line1": "1 43208U 18018B   25353.38781235 -.00000053  00000+0  00000+0 0  9997",
        "tle_line2": "2 43208  56.4904  69.0885 0007021 313.7803  46.1968  1.86231460 53393"
      },
      "geometry": {
        "type": "Point",
        "coordinates": [
          -35.81951668123162,
          -55.60801445792618
        ]
      }
    },
    {
      "type": "Feature",
      "properties": {
        "norad_id": 43245,
        "name": "BEIDOU-3 M9 (C29)",
        "group": "beidou",
        "lat": 46.518751301969,
        "lon": 77.08540371086045,
        "alt_km": 21526.972987739282,
        "timestamp": "2025-12-20T07:33:51.078243+00:00",
        "meta_object_name": "BEIDOU-3 M9 (C29)",
        "meta_object_id": "2018-029A",
        "meta_epoch": "2025-12-19T14:29:50.131680",
        "meta_mean_motion": 1.86228397,
        "meta_eccentricity": 0.00015252,
        "meta_inclination": 54.3596,
        "meta_ra_of_asc_node": 306.2287,
        "meta_arg_of_pericenter": 290.8433,
        "meta_mean_anomaly": 69.1316,
        "meta_ephemeris_type": 0,
        "meta_classification_type": "U",
        "meta_norad_cat_id": 43245,
        "meta_element_set_no": 999,
        "meta_rev_at_epoch": 5255,
        "meta_bstar": 0,
        "meta_mean_motion_dot": -7.4e-07,
        "meta_mean_motion_ddot": 0,
        "tle_line1": "1 43245U 18029A   25353.60405245 -.00000074  00000+0  00000+0 0  9992",
        "tle_line2": "2 43245  54.3596 306.2287 0001525 290.8433  69.1316  1.86228397 52551"
      },
      "geometry": {
        "type": "Point",
        "coordinates": [
          77.08540371086045,
          46.518751301969
        ]
      }
    },
    {
      "type": "Feature",
      "properties": {
        "norad_id": 43246,
        "name": "BEIDOU-3 M10 (C30)",
        "group": "beidou",
        "lat": 15.930870987137949,
        "lon": 114.39933181491782,
        "alt_km": 21537.14473572474,
        "timestamp": "2025-12-20T07:33:51.078254+00:00",
        "meta_object_name": "BEIDOU-3 M10 (C30)",
        "meta_object_id": "2018-029B",
        "meta_epoch": "2025-12-17T09:23:40.675200",
        "meta_mean_motion": 1.8622912,
        "meta_eccentricity": 0.00041993,
        "meta_inclination": 54.3586,
        "meta_ra_of_asc_node": 306.3321,
        "meta_arg_of_pericenter": 3.5987,
        "meta_mean_anomaly": 356.3911,
        "meta_ephemeris_type": 0,
        "meta_classification_type": "U",
        "meta_norad_cat_id": 43246,
        "meta_element_set_no": 999,
        "meta_rev_at_epoch": 5249,
        "meta_bstar": 0,
        "meta_mean_motion_dot": -9e-07,
        "meta_mean_motion_ddot": 0,
        "tle_line1": "1 43246U 18029B   25351.39144300 -.00000090  00000+0  00000+0 0  9997",
        "tle_line2": "2 43246  54.3586 306.3321 0004199   3.5987 356.3911  1.86229120 52494"
      },
      "geometry": {
        "type": "Point",
        "coordinates": [
          114.39933181491782,
          15.930870987137949
        ]
      }
    },
    {
      "type": "Feature",
      "properties": {
        "norad_id": 43539,
        "name": "BEIDOU-2 IGSO-7 (C16)",
        "group": "beidou",
        "lat": 26.205463167191837,
        "lon": -35.47844313424258,
        "alt_km": 35770.12242587853,
        "timestamp": "2025-12-20T07:33:51.078266+00:00",
        "meta_object_name": "BEIDOU-2 IGSO-7 (C16)",
        "meta_object_id": "2018-057A",
        "meta_epoch": "2025-12-15T07:47:07.120608",
        "meta_mean_motion": 1.00256546,
        "meta_eccentricity": 0.00926218,
        "meta_inclination": 55.1766,
        "meta_ra_of_asc_node": 164.6485,
        "meta_arg_of_pericenter": 235.2644,
        "meta_mean_anomaly": 271.8458,
        "meta_ephemeris_type": 0,
        "meta_classification_type": "U",
        "meta_norad_cat_id": 43539,
        "meta_element_set_no": 999,
        "meta_rev_at_epoch": 2728,
        "meta_bstar": 0,
        "meta_mean_motion_dot": -2.3e-07,
        "meta_mean_motion_ddot": 0,
        "tle_line1": "1 43539U 18057A   25349.32438797 -.00000023  00000+0  00000+0 0  9995",
        "tle_line2": "2 43539  55.1766 164.6485 0092621 235.2644 271.8458  1.00256546 27289"
      },
      "geometry": {
        "type": "Point",
        "coordinates": [
          -35.47844313424258,
          26.205463167191837
        ]
      }
    },
    {
      "type": "Feature",
      "properties": {
        "norad_id": 43581,
        "name": "BEIDOU-3 M5 (C23)",
        "group": "beidou",
        "lat": 7.753970305314794,
        "lon": -165.9426417490511,
        "alt_km": 21521.860394822113,
        "timestamp": "2025-12-20T07:33:51.078278+00:00",
        "meta_object_name": "BEIDOU-3 M5 (C23)",
        "meta_object_id": "2018-062A",
        "meta_epoch": "2025-12-17T01:53:59.361792",
        "meta_mean_motion": 1.86228923,
        "meta_eccentricity": 0.00020674,
        "meta_inclination": 54.0895,
        "meta_ra_of_asc_node": 188.4955,
        "meta_arg_of_pericenter": 356.8892,
        "meta_mean_anomaly": 3.1782,
        "meta_ephemeris_type": 0,
        "meta_classification_type": "U",
        "meta_norad_cat_id": 43581,
        "meta_element_set_no": 999,
        "meta_rev_at_epoch": 5024,
        "meta_bstar": 0,
        "meta_mean_motion_dot": 1.14e-06,
        "meta_mean_motion_ddot": 0,
        "tle_line1": "1 43581U 18062A   25351.07915928  .00000114  00000+0  00000+0 0  9999",
        "tle_line2": "2 43581  54.0895 188.4955 0002067 356.8892   3.1782  1.86228923 50243"
      },
      "geometry": {
        "type": "Point",
        "coordinates": [
          -165.9426417490511,
          7.753970305314794
        ]
      }
    },
    {
      "type": "Feature",
      "properties": {
        "norad_id": 43582,
        "name": "BEIDOU-3 M6 (C24)",
        "group": "beidou",
        "lat": 52.47432480761049,
        "lon": -62.367244745262084,
        "alt_km": 21509.021246926754,
        "timestamp": "2025-12-20T07:33:51.078290+00:00",
        "meta_object_name": "BEIDOU-3 M6 (C24)",
        "meta_object_id": "2018-062B",
        "meta_epoch": "2025-12-19T02:09:37.044576",
        "meta_mean_motion": 1.86229981,
        "meta_eccentricity": 0.0007838,
        "meta_inclination": 54.0893,
        "meta_ra_of_asc_node": 188.4162,
        "meta_arg_of_pericenter": 47.7681,
        "meta_mean_anomaly": 312.3611,
        "meta_ephemeris_type": 0,
        "meta_classification_type": "U",
        "meta_norad_cat_id": 43582,
        "meta_element_set_no": 999,
        "meta_rev_at_epoch": 5028,
        "meta_bstar": 0,
        "meta_mean_motion_dot": 1.04e-06,
        "meta_mean_motion_ddot": 0,
        "tle_line1": "1 43582U 18062B   25353.09001209  .00000104  00000+0  00000+0 0  9991",
        "tle_line2": "2 43582  54.0893 188.4162 0007838  47.7681 312.3611  1.86229981 50280"
      },
      "geometry": {
        "type": "Point",
        "coordinates": [
          -62.367244745262084,
          52.47432480761049
        ]
      }
    }
  ]
}